SYRACUSE 3A             
1 28885U 05041B   18182.12446664  .00000127  00000-0  00000+0 0  9993
2 28885   0.0375  68.7710 0003197  38.9480 263.1719  1.00272005 46577
INMARSAT 4-F2           
1 28899U 05044A   18181.10309619  .00000007  00000-0  00000-0 0  9994
2 28899   2.6808  19.0769 0004111  92.2040 267.8298  1.00271236 46350
TELKOM 2                
1 28902U 05046A   18182.50502953 -.00000140  00000-0  00000+0 0  9990
2 28902   0.0273  68.1953 0001032  70.6798 119.4162  1.00270054 46081
SPACEWAY 2              
1 28903U 05046B   18181.44915654 -.00000128  00000-0  00000-0 0  9996
2 28903   0.0463 182.7233 0000244   8.7071 149.6643  1.00269749 22168
INSAT-4A                
1 28911U 05049A   18181.99453201 -.00000167  00000-0  00000+0 0  9995
2 28911   0.0131  73.5837 0000387 140.7005 145.7076  1.00272374 45933
METEOSAT-9 (MSG-2)      
1 28912U 05049B   18181.90034041  .00000017  00000-0  00000-0 0  9998
2 28912   2.9496  71.7046 0000394  51.1357 123.5494  1.00276829 45874
EUTELSAT 172A (GE-23)   
1 28924U 05052A   18181.86256729  .00000008  00000-0  00000+0 0  9998
2 28924   0.0624  13.0678 0006016  85.0962 305.2175  1.00271741 45822
ECHOSTAR 10             
1 28935U 06003A   18182.16090895 -.00000057  00000-0  00000+0 0  9996
2 28935   0.0196 121.7191 0002199 305.4264 159.7553  1.00271277 45351
HIMAWARI-7 (MTSAT-2)    
1 28937U 06004A   18181.86952920 -.00000244  00000-0  00000-0 0  9990
2 28937   0.0187  80.5744 0003608  19.4112 276.9256  1.00274164 45315
SPAINSAT                
1 28945U 06007A   18182.30756872 -.00000217  00000-0  00000+0 0  9999
2 28945   0.0493 226.4924 0003604 245.7323 247.8083  1.00274117 45075
EUTELSAT HOT BIRD 13E   
1 28946U 06007B   18182.18848620  .00000085  00000-0  00000+0 0  9991
2 28946   0.0060 325.0605 0005621 161.2056 233.7859  1.00269279 45140
JCSAT-5A                
1 29045U 06010A   18182.53243722 -.00000329  00000-0  00000+0 0  9999
2 29045   0.0397 101.9798 0002316 349.1344 152.1430  1.00271805 44789
ASTRA 1KR               
1 29055U 06012A   18181.92341288  .00000118  00000-0  00000-0 0  9996
2 29055   0.0680 271.3082 0002088 245.3299 113.9190  1.00270361 16575
GOES 13                 
1 29155U 06018A   18181.39292281 -.00000286  00000-0  00000-0 0  9999
2 29155   0.1335 266.9080 0007882 151.4791 301.6840  1.00277567 44353
EUTELSAT 113 WEST A     
1 29162U 06020A   18181.54023256 -.00000039  00000-0  00000-0 0  9997
2 29162   0.0368 247.9509 0002996 212.7254 259.3516  1.00271151 44315
THAICOM 5               
1 29163U 06020B   18181.89563250 -.00000124  00000-0  00000-0 0  9994
2 29163   0.0227 294.3991 0002784 186.1844 199.2447  1.00272796 44338
GALAXY 16 (G-16)        
1 29236U 06023A   18182.53508586 -.00000128  00000-0  00000+0 0  9994
2 29236   0.0174  41.5180 0003375  69.2377 262.3956  1.00272182 44113
EUTELSAT HOT BIRD 13B   
1 29270U 06032A   18182.21754793  .00000085  00000-0  00000+0 0  9991
2 29270   0.0632 349.6045 0003781  87.6711 293.2793  1.00271691 43709
JCSAT-3A                
1 29272U 06033A   18182.53243722 -.00000346  00000-0  00000+0 0  9995
2 29272   0.0151  51.9218 0001630  82.7736 104.5080  1.00270874 43600
SYRACUSE 3B             
1 29273U 06033B   18181.88799273 -.00000046  00000-0  00000-0 0  9998
2 29273   0.0241  72.7545 0004687  18.7854 141.8095  1.00272267 43552
KOREASAT 5 (MUGUNGWHA 5)
1 29349U 06034A   18181.92223661 -.00000360  00000-0  00000-0 0  9990
2 29349   0.0182  50.9447 0001829  85.7897 227.2554  1.00273423 12151
DIRECTV 9S              
1 29494U 06043A   18181.66410573 -.00000115  00000-0  00000-0 0  9990
2 29494   0.0117  35.6057 0003528  67.9956 313.0501  1.00269557 22232
OPTUS D1                
1 29495U 06043B   18182.50590189 -.00000112  00000-0  00000+0 0  9993
2 29495   0.0266 284.5105 0003757 176.6907 160.4214  1.00272535 42984
XM-4 (BLUES)            
1 29520U 06049A   18182.48786699 -.00000024  00000-0  00000+0 0  9990
2 29520   0.0450 195.5600 0000676 317.1178 187.1435  1.00271740 42830
BADR-4                  
1 29526U 06051A   18181.90487667  .00000142  00000-0  00000-0 0  9999
2 29526   0.0516 333.7568 0002667  80.1737 216.7309  1.00270117 22124
FENGYUN 2D              
1 29640U 06053A   18181.27416734 -.00000367  00000-0  10000-3 0  9999
2 29640   5.1410  62.5579 0005845 307.4947 130.3445  1.00259572 42393
WILDBLUE-1              
1 29643U 06054A   18182.16468237 -.00000051  00000-0  00000+0 0  9992
2 29643   0.0144  37.2696 0002028  70.6495 119.3610  1.00270054 42388
AMC-18                  
1 29644U 06054B   18182.21310410  .00000103  00000-0  00000+0 0  9995
2 29644   0.0456 286.5161 0002848 169.8641 120.5324  1.00272231 42391
MEASAT-3                
1 29648U 06056A   18182.07305941 -.00000244  00000-0  00000+0 0  9995
2 29648   0.0483 147.7271 0004025 336.3745 272.7723  1.00273698 42391
INSAT-4B                
1 30793U 07007A   18182.49621872 -.00000355  00000-0  00000+0 0  9998
2 30793   0.0171  58.5139 0003086  33.2242 117.7023  1.00268118 41404
SKYNET 5A               
1 30794U 07007B   18182.49299098 -.00000273  00000-0  00000+0 0  9999
2 30794   0.0645   9.7742 0003663  98.3162  84.0754  1.00272676 41493
ANIK F3                 
1 31102U 07009A   18182.52549461 -.00000002  00000-0  00000+0 0  9991
2 31102   0.0178  27.3743 0002037  81.6986 240.9008  1.00272032 41185
ASTRA 1L                
1 31306U 07016A   18181.87827149  .00000118  00000-0  00000-0 0  9992
2 31306   0.0761 299.2495 0001009 106.5626 208.4499  1.00269901 15915
GALAXY 17 (G-17)        
1 31307U 07016B   18182.45119031 -.00000176  00000-0  00000+0 0  9996
2 31307   0.0238  22.1538 0003661  83.0487 245.6741  1.00272171 40921
ZHONGXING-6B            
1 31800U 07031A   18182.49709108 -.00000363  00000-0  00000+0 0  9993
2 31800   0.0164  38.3451 0002948  65.3064 110.2972  1.00271106 40314
DIRECTV 10              
1 31862U 07032A   18181.51201847 -.00000105  00000-0  00000+0 0  9995
2 31862   0.0108 286.5058 0000787 239.6301 193.8662  1.00272669 40249
SPACEWAY 3              
1 32018U 07036A   18181.77966150 -.00000153  00000-0  00000+0 0  9999
2 32018   0.0097 127.4284 0000260  64.5945 272.4867  1.00270373 39967
BSAT-3A                 
1 32019U 07036B   18180.92281533 -.00000353  00000-0  00000-0 0  9994
2 32019   0.0786 244.9115 0002291 284.5978 190.4892  1.00272449 21343
INSAT-4CR               
1 32050U 07037A   18182.48356953  .00000124  00000-0  00000+0 0  9996
2 32050   0.0365 102.7912 0001206   8.9785  29.6129  1.00271924 39696
OPTUS D2                
1 32252U 07044A   18182.49979880 -.00000184  00000-0  00000+0 0  9996
2 32252   0.0228 289.8405 0003792 173.9882 147.6033  1.00271991 39289
INTELSAT 11 (IS-11)     
1 32253U 07044B   18181.89109341 -.00000270  00000-0  00000-0 0  9994
2 32253   0.0507 231.9396 0001732 230.7594  94.0034  1.00272496 39446
STAR ONE C1             
1 32293U 07056A   18182.40450661 -.00000278  00000-0  00000+0 0  9990
2 32293   0.0146  74.2421 0002641  27.1363 258.6460  1.00272243 38954
SKYNET 5B               
1 32294U 07056B   18182.47903325  .00000140  00000-0  00000+0 0  9995
2 32294   0.0681   1.7550 0003497 103.1009  12.1793  1.00269028 39038
ASTRA 4A (SIRIUS 4)     
1 32299U 07057A   18181.92827221  .00000030  00000-0  00000-0 0  9999
2 32299   0.0097  18.8449 0003056  77.1743 161.8928  1.00271929 22538
HORIZONS-2              
1 32388U 07063B   18182.08105777 -.00000184  00000-0  00000+0 0  9998
2 32388   0.0144  53.6872 0003190  43.9249 295.5021  1.00272901 38726
THURAYA-3               
1 32404U 08001A   18182.49368888 -.00000301  00000-0  00000+0 0  9990
2 32404   3.9025 358.3441 0004867  98.1317  99.2525  1.00271745 38376
EXPRESS-AM33            
1 32478U 08003A   18181.91892164 -.00000282  00000-0  00000-0 0  9997
2 32478   0.0513 205.7633 0000765 348.8317 151.6268  1.00270989 38447
THOR 5                  
1 32487U 08006A   18181.92827221 -.00000011  00000-0  00000-0 0  9993
2 32487   0.0520 237.5993 0002552 223.3863 151.3627  1.00272747 38143
KIZUNA (WINDS)          
1 32500U 08007A   18181.99996376 -.00000262  00000-0  00000+0 0  9992
2 32500   1.6435  88.1144 0002158   6.4581 327.4101  1.00271953 37878
AMC-14                  
1 32708U 08011A   18182.35604733  .00000082  00000-0  00000+0 0  9990
2 32708  19.7855  57.2741 0042113   3.8994   4.3216  1.00274805 38944
DIRECTV 11              
1 32729U 08013A   18182.42554571 -.00000127  00000-0  00000+0 0  9998
2 32729   0.0075 159.4900 0000583   5.4748 168.4638  1.00269656 37774
ICO G1                  
1 32763U 08016A   18181.88114853 -.00000173  00000-0  00000-0 0  9995
2 32763   3.7040   0.2812 0002490  99.7748  43.1860  1.00271280 37428
VINASAT-1               
1 32767U 08018A   18180.86163669 -.00000331  00000-0  00000-0 0  9993
2 32767   0.0107   1.1315 0001714 101.2911 257.5902  1.00273128 37446
STAR ONE C2             
1 32768U 08018B   18182.41835956 -.00000267  00000-0  00000+0 0  9999
2 32768   0.0058 132.0297 0002485   2.5705 225.4148  1.00273366 37399
TIANLIAN 1-01           
1 32779U 08019A   18181.91569392 -.00000141  00000-0  10000-3 0  9990
2 32779   2.8071  74.2163 0032191 241.5780  12.7157  1.00270375 37305
AMOS-3                  
1 32794U 08022A   18182.21394486 -.00000037  00000-0  00000+0 0  9994
2 32794   0.0058 105.4466 0001158 355.9267 250.7262  1.00271972 37292
GALAXY 18 (G-18)        
1 32951U 08024A   18181.56795299  .00000023  00000-0  00000+0 0  9999
2 32951   0.0212  18.1472 0003288  85.6475 256.2419  1.00270454 36928
CHINASAT 9 (ZX 9)       
1 33051U 08028A   18181.91855022 -.00000250  00000-0  00000-0 0  9999
2 33051   0.0191 340.0911 0004622 123.2757 238.4403  1.00274760 36846
SKYNET 5C               
1 33055U 08030A   18181.89615309 -.00000141  00000-0  00000-0 0  9994
2 33055   0.0591  14.1032 0004231  92.9865 116.6081  1.00271828 36790
